OBJECT_NAME,OBJECT_ID,EPOCH,MEAN_MOTION,ECCENTRICITY,INCLINATION,RA_OF_ASC_NODE,ARG_OF_PERICENTER,MEAN_ANOMALY,EPHEMERIS_TYPE,CLASSIFICATION_TYPE,NORAD_CAT_ID,ELEMENT_SET_NO,REV_AT_EPOCH,BSTAR,MEAN_MOTION_DOT,MEAN_MOTION_DDOT
IONOSFERA-M 4,2025-155B,2026-07-13T21:18:01.728000,14.21493133,.00018,98.6038,156.0397,100.9887,259.1493,0,U,64877,999,5019,.21913E-4,.5E-7,0
MICROCARB,2025-156A,2026-07-13T18:49:10.886592,14.72884158,.0017526,98.0075,271.5062,175.2277,184.9101,0,U,64899,999,5188,.48328E-4,.26E-5,0
CO3D 3,2025-156B,2026-07-13T20:18:01.484064,15.20185668,.0001792,97.4339,273.1556,93.8209,266.3230,0,U,64900,999,5358,.11803E-3,.2487E-4,0
CO3D 4,2025-156C,2026-07-13T20:18:15.981120,15.20203183,.000158,97.4335,273.1556,155.6740,204.4569,0,U,64901,999,5358,.35732E-4,.706E-5,0
CO3D 2,2025-156D,2026-07-13T19:30:14.707008,15.20194985,.0001252,97.4338,273.0215,87.6192,272.5187,0,U,64902,999,5357,.10966E-3,.2307E-4,0
CO3D 1,2025-156E,2026-07-13T19:30:27.974592,15.20194788,.0001276,97.4337,273.0218,99.6518,260.4861,0,U,64903,999,5357,.11644E-3,.2453E-4,0
PRSC-S1,2025-164A,2026-07-13T21:55:45.710400,15.06628777,.0006508,41.1296,137.2644,189.9382,170.1304,0,U,65055,999,5246,.16135E-3,.2257E-4,0
SENTINEL-6B,2025-264A,2026-07-13T20:46:51.765024,12.80930106,.0007867,66.0413,79.7678,268.7828,91.2286,0,U,66514,999,3058,.52061E-4,-.49E-6,0
CAS500-3,2025-274F,2026-07-13T18:30:14.702400,14.88381724,.0006323,97.7437,122.2175,42.0337,318.1364,0,U,66655,999,3410,.70482E-4,.599E-5,0
CSG-3,2026-001A,2026-07-13T12:40:32.844288,14.82151371,.00015181,97.8894,17.7492,93.3222,266.8165,0,U,67304,999,2836,.2348529E-4,.135E-5,0
PRSC-E03,2026-092A,2026-07-13T16:43:54.471072,15.06805087,.0004801,38.0017,293.3420,241.9248,118.1028,0,U,68835,999,1195,.95726E-4,.1343E-4,0
CAS500-2,2026-100AK,2026-07-13T16:03:46.072800,15.20891192,.0007871,97.3873,92.0228,298.6467,61.3977,0,U,69013,999,1083,.16776E-3,.3642E-4,0
